{
    "links": {
        "self": "http://www.neowsapp.com/rest/v1/neo/3781826?api_key=iIulBulltgU6a56xZRHN4H3l9WmuAYTsLGpBGhQ2"
    },
    "id": "3781826",
    "neo_reference_id": "3781826",
    "name": "(2017 RR17)",
    "designation": "2017 RR17",
    "nasa_jpl_url": "http://ssd.jpl.nasa.gov/sbdb.cgi?sstr=3781826",
    "absolute_magnitude_h": 23.6,
    "estimated_diameter": {
        "kilometers": {
            "estimated_diameter_min": 0.0506471459,
            "estimated_diameter_max": 0.1132504611
        },
        "meters": {
            "estimated_diameter_min": 50.6471458835,
            "estimated_diameter_max": 113.2504610618
        },
        "miles": {
            "estimated_diameter_min": 0.0314706677,
            "estimated_diameter_max": 0.0703705522
        },
        "feet": {
            "estimated_diameter_min": 166.1651821003,
            "estimated_diameter_max": 371.5566426699
        }
    },
    "is_potentially_hazardous_asteroid": false,
    "close_approach_data": [
        {
            "close_approach_date": "2017-09-05",
            "close_approach_date_full": "2017-Sep-05 14:59",
            "epoch_date_close_approach": 1504623540000,
            "relative_velocity": {
                "kilometers_per_second": "13.6417000212",
                "kilometers_per_hour": "49110.1200763423",
                "miles_per_hour": "30515.1187774361"
            },
            "miss_distance": {
                "astronomical": "0.1520002434",
                "lunar": "59.1280946826",
                "kilometers": "22738912.652121558",
                "miles": "14129305.1374431804"
            },
            "orbiting_body": "Earth"
        }
    ],
    "orbital_data": {
        "orbit_id": "1",
        "orbit_determination_date": "2017-09-27 06:51:21",
        "first_observation_date": "2017-09-01",
        "last_observation_date": "2017-09-02",
        "data_arc_in_days": 1,
        "observations_used": 11,
        "orbit_uncertainty": "9",
        "minimum_orbit_intersection": ".146836",
        "jupiter_tisserand_invariant": "4.922",
        "epoch_osculation": "2457998.5",
        "eccentricity": ".1585374419721745",
        "semi_major_axis": "1.286359819266729",
        "inclination": "26.68743944812687",
        "ascending_node_longitude": "159.357316550504",
        "orbital_period": "532.895589543807",
        "perihelion_distance": "1.082423624064393",
        "perihelion_argument": "239.6418615571299",
        "aphelion_distance": "1.490296014469065",
        "perihelion_time": "2458065.961287298608",
        "mean_anomaly": "314.4262255045321",
        "mean_motion": ".6755544745795011",
        "equinox": "J2000",
        "orbit_class": {
            "orbit_class_type": "AMO",
            "orbit_class_description": "Near-Earth asteroid orbits similar to that of 1221 Amor",
            "orbit_class_range": "1.017 AU < q (perihelion) < 1.3 AU"
        }
    },
    "is_sentry_object": false
}